[{"OBJECT_NAME":"COSMOS 2503","OBJECT_ID":"2015-009A","EPOCH":"2026-03-09T16:42:37.703808","MEAN_MOTION":15.06275973,"ECCENTRICITY":0.00153206,"INCLINATION":97.8437,"RA_OF_ASC_NODE":123.7175,"ARG_OF_PERICENTER":225.745,"MEAN_ANOMALY":134.252,"EPHEMERIS_TYPE":0,"CLASSIFICATION_TYPE":"U","NORAD_CAT_ID":40420,"ELEMENT_SET_NO":999,"REV_AT_EPOCH":60395,"BSTAR":0.00019589832,"MEAN_MOTION_DOT":2.817e-5,"MEAN_MOTION_DDOT":0},{"OBJECT_NAME":"STARLINK-4530","OBJECT_ID":"2022-097F","EPOCH":"2026-03-09T10:38:59.954208","MEAN_MOTION":15.08830673,"ECCENTRICITY":0.00011296,"INCLINATION":53.2163,"RA_OF_ASC_NODE":125.2236,"ARG_OF_PERICENTER":81.6249,"MEAN_ANOMALY":278.4871,"EPHEMERIS_TYPE":0,"CLASSIFICATION_TYPE":"U","NORAD_CAT_ID":53393,"ELEMENT_SET_NO":999,"REV_AT_EPOCH":19863,"BSTAR":1.2236218e-5,"MEAN_MOTION_DOT":-9.3e-7,"MEAN_MOTION_DDOT":0}]
