COSMOS 2503             
1 40420U 15009A   26068.69626972  .00002817  00000+0  19590-3 0  9998
2 40420  97.8437 123.7175 0015321 225.7450 134.2520 15.06275973603958
STARLINK-4530           
1 53393U 22097F   26068.44374947 -.00000093  00000+0  12236-4 0  9997
2 53393  53.2163 125.2236 0001129  81.6249 278.4871 15.08830673198634
